FLOCK 4G-7              
1 62624U 25009R   26068.79996108  .00011422  00000+0  43168-3 0  9991
2 62624  97.3984 150.8270 0001396 336.9783  23.1393 15.27141471 63725
STARLINK-35515          
1 66488U 25263D   26068.11839245  .00042838  00000+0  15562-2 0  9990
2 66488  43.0044 353.7399 0001758 261.7226  98.3426 15.27601008 18815
